[{"CCSDS_OMM_VERS":"2.0","COMMENT":"GENERATED VIA SPACE-TRACK.ORG API","CREATION_DATE":"2020-02-22T17:39:40","ORIGINATOR":"18 SPCS","OBJECT_NAME":"STARLINK-1024","OBJECT_ID":"2019-074S","CENTER_NAME":"EARTH","REF_FRAME":"TEME","TIME_SYSTEM":"UTC","MEAN_ELEMENT_THEORY":"SGP4","EPOCH":"2020-02-22T14:00:01.000224","MEAN_MOTION":"15.05612657","ECCENTRICITY":"0.00021360","INCLINATION":"52.9995","RA_OF_ASC_NODE":"34.6968","ARG_OF_PERICENTER":"58.4812","MEAN_ANOMALY":"327.6536","EPHEMERIS_TYPE":"0","CLASSIFICATION_TYPE":"U","NORAD_CAT_ID":"44729","ELEMENT_SET_NO":"999","REV_AT_EPOCH":"176","BSTAR":"-0.00261870000000","MEAN_MOTION_DOT":"-0.00038264","MEAN_MOTION_DDOT":"0.0000000000000","SEMIMAJOR_AXIS":"6927.762","PERIOD":"95.642","APOAPSIS":"551.107","PERIAPSIS":"548.147","OBJECT_TYPE":"PAYLOAD","RCS_SIZE":"LARGE","COUNTRY_CODE":"US","LAUNCH_DATE":"2019-11-11","SITE":"AFETR","DECAY_DATE":null,"FILE":"2708018","GP_ID":"149296790","TLE_LINE0":"0 STARLINK-1024","TLE_LINE1":"1 44729U 19074S   20053.58334491 -.00038264 +00000-0 -26187-2 0  9995","TLE_LINE2":"2 44729 052.9995 034.6968 0002136 058.4812 327.6536 15.05612657001767"},{"CCSDS_OMM_VERS":"2.0","COMMENT":"GENERATED VIA SPACE-TRACK.ORG API","CREATION_DATE":"2020-02-23T02:08:14","ORIGINATOR":"18 SPCS","OBJECT_NAME":"STARLINK-1024","OBJECT_ID":"2019-074S","CENTER_NAME":"EARTH","REF_FRAME":"TEME","TIME_SYSTEM":"UTC","MEAN_ELEMENT_THEORY":"SGP4","EPOCH":"2020-02-22T21:51:05.769216","MEAN_MOTION":"15.05554870","ECCENTRICITY":"0.00020940","INCLINATION":"53.0020","RA_OF_ASC_NODE":"33.2297","ARG_OF_PERICENTER":"56.1199","MEAN_ANOMALY":"303.9988","EPHEMERIS_TYPE":"0","CLASSIFICATION_TYPE":"U","NORAD_CAT_ID":"44729","ELEMENT_SET_NO":"999","REV_AT_EPOCH":"1588","BSTAR":"-0.00006373400000","MEAN_MOTION_DOT":"-0.00001207","MEAN_MOTION_DDOT":"0.0000000000000","SEMIMAJOR_AXIS":"6927.939","PERIOD":"95.645","APOAPSIS":"551.255","PERIAPSIS":"548.354","OBJECT_TYPE":"PAYLOAD","RCS_SIZE":"LARGE","COUNTRY_CODE":"US","LAUNCH_DATE":"2019-11-11","SITE":"AFETR","DECAY_DATE":null,"FILE":"2708216","GP_ID":"149320360","TLE_LINE0":"0 STARLINK-1024","TLE_LINE1":"1 44729U 19074S   20053.91048344 -.00001207 +00000-0 -63734-4 0  9999","TLE_LINE2":"2 44729 053.0020 033.2297 0002094 056.1199 303.9988 15.05554870015882"},{"CCSDS_OMM_VERS":"2.0","COMMENT":"GENERATED VIA SPACE-TRACK.ORG API","CREATION_DATE":"2020-02-23T06:46:17","ORIGINATOR":"18 SPCS","OBJECT_NAME":"STARLINK-1024","OBJECT_ID":"2019-074S","CENTER_NAME":"EARTH","REF_FRAME":"TEME","TIME_SYSTEM":"UTC","MEAN_ELEMENT_THEORY":"SGP4","EPOCH":"2020-02-23T06:00:00.999648","MEAN_MOTION":"15.05595093","ECCENTRICITY":"0.00022340","INCLINATION":"52.9996","RA_OF_ASC_NODE":"31.7048","ARG_OF_PERICENTER":"59.8184","MEAN_ANOMALY":"341.7584","EPHEMERIS_TYPE":"0","CLASSIFICATION_TYPE":"U","NORAD_CAT_ID":"44729","ELEMENT_SET_NO":"999","REV_AT_EPOCH":"1610","BSTAR":"-0.00057321000000","MEAN_MOTION_DOT":"-0.00008625","MEAN_MOTION_DDOT":"0.0000000000000","SEMIMAJOR_AXIS":"6927.816","PERIOD":"95.643","APOAPSIS":"551.229","PERIAPSIS":"548.133","OBJECT_TYPE":"PAYLOAD","RCS_SIZE":"LARGE","COUNTRY_CODE":"US","LAUNCH_DATE":"2019-11-11","SITE":"AFETR","DECAY_DATE":null,"FILE":"2708301","GP_ID":"149322538","TLE_LINE0":"0 STARLINK-1024","TLE_LINE1":"1 44729U 19074S   20054.25001157 -.00008625  00000-0 -57321-3 0  9993","TLE_LINE2":"2 44729  52.9996  31.7048 0002234  59.8184 341.7584 15.05595093 16109"},{"CCSDS_OMM_VERS":"2.0","COMMENT":"GENERATED VIA SPACE-TRACK.ORG API","CREATION_DATE":"2020-02-23T19:25:00","ORIGINATOR":"18 SPCS","OBJECT_NAME":"STARLINK-1024","OBJECT_ID":"2019-074S","CENTER_NAME":"EARTH","REF_FRAME":"TEME","TIME_SYSTEM":"UTC","MEAN_ELEMENT_THEORY":"SGP4","EPOCH":"2020-02-23T14:00:01.000224","MEAN_MOTION":"15.05608836","ECCENTRICITY":"0.00021670","INCLINATION":"52.9995","RA_OF_ASC_NODE":"30.2074","ARG_OF_PERICENTER":"60.1853","MEAN_ANOMALY":"349.1007","EPHEMERIS_TYPE":"0","CLASSIFICATION_TYPE":"U","NORAD_CAT_ID":"44729","ELEMENT_SET_NO":"999","REV_AT_EPOCH":"176","BSTAR":"-0.00265830000000","MEAN_MOTION_DOT":"-0.00038831","MEAN_MOTION_DDOT":"0.0000000000000","SEMIMAJOR_AXIS":"6927.774","PERIOD":"95.642","APOAPSIS":"551.140","PERIAPSIS":"548.138","OBJECT_TYPE":"PAYLOAD","RCS_SIZE":"LARGE","COUNTRY_CODE":"US","LAUNCH_DATE":"2019-11-11","SITE":"AFETR","DECAY_DATE":null,"FILE":"2708573","GP_ID":"149348139","TLE_LINE0":"0 STARLINK-1024","TLE_LINE1":"1 44729U 19074S   20054.58334491 -.00038831 +00000-0 -26583-2 0  9996","TLE_LINE2":"2 44729 052.9995 030.2074 0002167 060.1853 349.1007 15.05608836001762"},{"CCSDS_OMM_VERS":"2.0","COMMENT":"GENERATED VIA SPACE-TRACK.ORG API","CREATION_DATE":"2020-02-24T02:48:55","ORIGINATOR":"18 SPCS","OBJECT_NAME":"STARLINK-1024","OBJECT_ID":"2019-074S","CENTER_NAME":"EARTH","REF_FRAME":"TEME","TIME_SYSTEM":"UTC","MEAN_ELEMENT_THEORY":"SGP4","EPOCH":"2020-02-23T22:00:01.999584","MEAN_MOTION":"15.05522612","ECCENTRICITY":"0.00019920","INCLINATION":"52.9996","RA_OF_ASC_NODE":"28.7102","ARG_OF_PERICENTER":"66.7114","MEAN_ANOMALY":"350.3261","EPHEMERIS_TYPE":"0","CLASSIFICATION_TYPE":"U","NORAD_CAT_ID":"44729","ELEMENT_SET_NO":"999","REV_AT_EPOCH":"176","BSTAR":"0.01189000000000","MEAN_MOTION_DOT":"0.00177097","MEAN_MOTION_DDOT":"0.0000000000000","SEMIMAJOR_AXIS":"6928.038","PERIOD":"95.647","APOAPSIS":"551.283","PERIAPSIS":"548.523","OBJECT_TYPE":"PAYLOAD","RCS_SIZE":"LARGE","COUNTRY_CODE":"US","LAUNCH_DATE":"2019-11-11","SITE":"AFETR","DECAY_DATE":null,"FILE":"2708763","GP_ID":"149391243","TLE_LINE0":"0 STARLINK-1024","TLE_LINE1":"1 44729U 19074S   20054.91668981 +.00177097 +00000-0 +11890-1 0  9997","TLE_LINE2":"2 44729 052.9996 028.7102 0001992 066.7114 350.3261 15.05522612001767"},{"CCSDS_OMM_VERS":"2.0","COMMENT":"GENERATED VIA SPACE-TRACK.ORG API","CREATION_DATE":"2020-02-24T16:37:23","ORIGINATOR":"18 SPCS","OBJECT_NAME":"STARLINK-1024","OBJECT_ID":"2019-074S","CENTER_NAME":"EARTH","REF_FRAME":"TEME","TIME_SYSTEM":"UTC","MEAN_ELEMENT_THEORY":"SGP4","EPOCH":"2020-02-24T05:42:53.743392","MEAN_MOTION":"15.05580307","ECCENTRICITY":"0.00024060","INCLINATION":"53.0020","RA_OF_ASC_NODE":"27.2699","ARG_OF_PERICENTER":"56.9064","MEAN_ANOMALY":"303.2154","EPHEMERIS_TYPE":"0","CLASSIFICATION_TYPE":"U","NORAD_CAT_ID":"44729","ELEMENT_SET_NO":"999","REV_AT_EPOCH":"1608","BSTAR":"-0.00018962000000","MEAN_MOTION_DOT":"-0.00003041","MEAN_MOTION_DDOT":"0.0000000000000","SEMIMAJOR_AXIS":"6927.861","PERIOD":"95.644","APOAPSIS":"551.393","PERIAPSIS":"548.060","OBJECT_TYPE":"PAYLOAD","RCS_SIZE":"LARGE","COUNTRY_CODE":"US","LAUNCH_DATE":"2019-11-11","SITE":"AFETR","DECAY_DATE":null,"FILE":"2709133","GP_ID":"149419317","TLE_LINE0":"0 STARLINK-1024","TLE_LINE1":"1 44729U 19074S   20055.23812203 -.00003041 +00000-0 -18962-3 0  9999","TLE_LINE2":"2 44729 053.0020 027.2699 0002406 056.9064 303.2154 15.05580307016082"},{"CCSDS_OMM_VERS":"2.0","COMMENT":"GENERATED VIA SPACE-TRACK.ORG API","CREATION_DATE":"2020-02-24T06:46:15","ORIGINATOR":"18 SPCS","OBJECT_NAME":"STARLINK-1024","OBJECT_ID":"2019-074S","CENTER_NAME":"EARTH","REF_FRAME":"TEME","TIME_SYSTEM":"UTC","MEAN_ELEMENT_THEORY":"SGP4","EPOCH":"2020-02-24T06:00:00.999648","MEAN_MOTION":"15.05551548","ECCENTRICITY":"0.00021790","INCLINATION":"52.9997","RA_OF_ASC_NODE":"27.2157","ARG_OF_PERICENTER":"59.2897","MEAN_ANOMALY":"5.3615","EPHEMERIS_TYPE":"0","CLASSIFICATION_TYPE":"U","NORAD_CAT_ID":"44729","ELEMENT_SET_NO":"999","REV_AT_EPOCH":"1625","BSTAR":"0.00173710000000","MEAN_MOTION_DOT":"0.00025101","MEAN_MOTION_DDOT":"0.0000000000000","SEMIMAJOR_AXIS":"6927.950","PERIOD":"95.646","APOAPSIS":"551.324","PERIAPSIS":"548.305","OBJECT_TYPE":"PAYLOAD","RCS_SIZE":"LARGE","COUNTRY_CODE":"US","LAUNCH_DATE":"2019-11-11","SITE":"AFETR","DECAY_DATE":null,"FILE":"2708851","GP_ID":"149393578","TLE_LINE0":"0 STARLINK-1024","TLE_LINE1":"1 44729U 19074S   20055.25001157  .00025101  00000-0  17371-2 0  9990","TLE_LINE2":"2 44729  52.9997  27.2157 0002179  59.2897   5.3615 15.05551548 16255"},{"CCSDS_OMM_VERS":"2.0","COMMENT":"GENERATED VIA SPACE-TRACK.ORG API","CREATION_DATE":"2020-02-24T22:36:14","ORIGINATOR":"18 SPCS","OBJECT_NAME":"STARLINK-1024","OBJECT_ID":"2019-074S","CENTER_NAME":"EARTH","REF_FRAME":"TEME","TIME_SYSTEM":"UTC","MEAN_ELEMENT_THEORY":"SGP4","EPOCH":"2020-02-24T22:00:00.999936","MEAN_MOTION":"15.05559841","ECCENTRICITY":"0.00020820","INCLINATION":"53.0000","RA_OF_ASC_NODE":"24.2213","ARG_OF_PERICENTER":"64.6098","MEAN_ANOMALY":"15.3934","EPHEMERIS_TYPE":"0","CLASSIFICATION_TYPE":"U","NORAD_CAT_ID":"44729","ELEMENT_SET_NO":"999","REV_AT_EPOCH":"1635","BSTAR":"0.00406330000000","MEAN_MOTION_DOT":"0.00059392","MEAN_MOTION_DDOT":"0.0000000000000","SEMIMAJOR_AXIS":"6927.924","PERIOD":"95.645","APOAPSIS":"551.232","PERIAPSIS":"548.347","OBJECT_TYPE":"PAYLOAD","RCS_SIZE":"LARGE","COUNTRY_CODE":"US","LAUNCH_DATE":"2019-11-11","SITE":"AFETR","DECAY_DATE":null,"FILE":"2709251","GP_ID":"149421088","TLE_LINE0":"0 STARLINK-1024","TLE_LINE1":"1 44729U 19074S   20055.91667824  .00059392  00000-0  40633-2 0  9998","TLE_LINE2":"2 44729  53.0000  24.2213 0002082  64.6098  15.3934 15.05559841 16358"}]